COSMOS 2413 (712)       
1 28509U 04053B   16013.46401543  .00000092  00000-0  00000+0 0  9994
2 28509  63.1323 195.6430 0005608 160.1093  27.6703  2.13101734 85988
COSMOS 2419 (714)       
1 28915U 05050A   16012.42558112  .00000004  00000-0  00000+0 0  9996
2 28915  65.2523  83.4613 0014777 347.4734 123.0228  2.13112776 78219
COSMOS 2425 (716)       
1 29670U 06062A   16012.83357285 -.00000025  00000-0  10000-3 0  9991
2 29670  65.6992 322.4093 0023111 341.0535 144.3677  2.13105051 70428
COSMOS 2426 (717)       
1 29671U 06062B   16012.11220267 -.00000026  00000-0  10000-3 0  9993
2 29671  65.7167 322.5118 0015467 172.2617 341.7675  2.13103062 70413
COSMOS 2424 (715)       
1 29672U 06062C   16012.78280425 -.00000025  00000-0  10000-3 0  9998
2 29672  65.7011 322.4200 0014824 171.1545 314.1097  2.13102172 70421
COSMOS 2433 (720)       
1 32275U 07052A   16013.03357898  .00000001  00000-0  10000-3 0  9992
2 32275  65.2679  83.2066 0003529 249.5135 221.1337  2.13105042 63948
COSMOS 2432 (719)       
1 32276U 07052B   16012.45878618  .00000004  00000-0  10000-3 0  9999
2 32276  65.2798  83.2892 0011251 332.4068  11.4559  2.13104212 63928
COSMOS 2434 (721)       
1 32393U 07065A   16012.73284127 -.00000026  00000-0  00000+0 0  9990
2 32393  65.3189 321.8101 0001518 100.7578  32.4943  2.13102814 62648
COSMOS 2436 (723)       
1 32395U 07065C   16012.74342094 -.00000026  00000-0  10000-3 0  9996
2 32395  65.3318 321.8499 0018399 347.2292 246.1255  2.13102844 62575
COSMOS 2443 (725)       
1 33379U 08046B   16012.16469859  .00000005  00000-0  10000-3 0  9990
2 33379  65.1964  82.6684 0018913 187.3237 243.7611  2.13101481 56797
COSMOS 2456 (730)       
1 36111U 09070A   16012.10321013  .00000094  00000-0  00000+0 0  9991
2 36111  64.1864 201.4470 0003548 350.6207 188.3770  2.13102975 47290
COSMOS 2457 (733)       
1 36112U 09070B   16012.33633074  .00000093  00000-0  00000+0 0  9999
2 36112  64.1684 201.3696 0007425 145.6022 343.2451  2.13101634 47306
COSMOS 2458 (734)       
1 36113U 09070C   16013.22225138  .00000093  00000-0  10000-3 0  9992
2 36113  64.1734 201.3440 0003159  60.9048  74.8336  2.13102005 47321
COSMOS 2459 (731)       
1 36400U 10007A   16013.16942549 -.00000000  00000-0  10000-3 0  9997
2 36400  65.1758  82.3727 0027615 351.2006  90.4001  2.13102322 45676
COSMOS 2461 (735)       
1 36401U 10007B   16013.21059848 -.00000000  00000-0  10000-3 0  9995
2 36401  65.1680  82.3545 0004969  79.6306 304.1062  2.13102284 45679
COSMOS 2460 (732)       
1 36402U 10007C   16012.83160303  .00000002  00000-0  10000-3 0  9993
2 36402  65.1584  82.3459 0001238 224.3310 270.7732  2.13101992 45663
COSMOS 2466 (738)       
1 37137U 10041A   16012.12354244 -.00000027  00000-0  10000-3 0  9996
2 37137  64.9027 322.0130 0018570 158.4760  90.9576  2.13102316 41723
COSMOS 2465 (737)       
1 37138U 10041B   16012.14708676 -.00000027  00000-0  00000+0 0  9996
2 37138  64.9199 322.0822 0033361 171.6250 278.4032  2.13102756 41726
COSMOS 2464 (736)       
1 37139U 10041C   16012.20256589 -.00000027  00000-0  00000+0 0  9995
2 37139  64.9215 322.0721 0022483   7.8356 259.3400  2.13102929 41723
COSMOS 2471 (701K)      
1 37372U 11009A   16012.67562256  .00000003  00000-0  00000+0 0  9994
2 37372  65.1559  82.3010 0008682 232.8417 274.6641  2.13102977 37934
COSMOS 2474 (742)       
1 37829U 11055A   16013.20719110  .00000094  00000-0  00000+0 0  9995
2 37829  64.5105 201.7570 0005559 248.4905 279.5473  2.13101963 33313
COSMOS 2476 (744)       
1 37867U 11064A   16012.88611883  .00000093  00000-0  00000+0 0  9997
2 37867  64.4907 201.8532 0014372 245.3835  82.1003  2.13102065 32651
COSMOS 2477 (745)       
1 37868U 11064B   16012.05362432  .00000094  00000-0  00000+0 0  9991
2 37868  64.4991 201.9202 0012391 246.5618 341.6659  2.13101951 32597
COSMOS 2475 (743)       
1 37869U 11064C   16012.52063821  .00000093  00000-0  00000+0 0  9993
2 37869  64.5065 201.8904 0018064 278.8801 263.6818  2.13102177 32618
COSMOS 2478 (746)       
1 37938U 11071A   16011.97855888  .00000005  00000-0  00000+0 0  9991
2 37938  65.1814  82.5431 0014383 239.4057 214.3470  2.13088437 32214
COSMOS 2485 (747)       
1 39155U 13019A   16012.45181253  .00000094  00000-0  00000+0 0  9998
2 39155  64.6598 201.7838 0014712 239.0781 160.4178  2.13102120 21122
COSMOS 2492 (754)       
1 39620U 14012A   16012.44834949  .00000012  00000-0  20935+2 0  9996
2 39620  65.0465  82.3690 0014973 329.0921 100.4489  2.13103799 14079
COSMOS 2500 (755)       
1 40001U 14032A   16012.16484594  .00000004  00000-0  00000+0 0  9999
2 40001  64.9874  82.4150 0007280 208.0505 228.0119  2.13102917 12284
COSMOS 2501 (702K)      
1 40315U 14075A   16012.20097591 -.00000028  00000-0  00000+0 0  9993
2 40315  64.6899 323.5786 0018255 241.0241  24.8039  2.13101527  8686
